NORAD_CAT_ID,OBJECT_NAME,OBJECT_TYPE,EPOCH,MEAN_MOTION,ECCENTRICITY,INCLINATION,RA_OF_ASC_NODE,ARG_OF_PERICENTER,MEAN_ANOMALY,BSTAR,MEAN_MOTION_DOT,MEAN_MOTION_DDOT,TLE_LINE0,TLE_LINE1,TLE_LINE2,SEMIMAJOR_AXIS,PERIOD,APOGEE,PERIGEE,DECAYED
53603.0,STARLINK-4692,PAYLOAD,2023-01-08 11:47:50,15.08827238,0.0002577,53.2187,29.8287,32.6531,327.462,6.002300000000001e-05,6.67e-06,0.0,0 STARLINK-4692,1 53603U 22104R   23008.49155584  .00000667  00000-0  60023-4 0  9994,2 53603  53.2187  29.8287 0002577  32.6531 327.4620 15.08827238 21137,6917.919,95.438,541.567,538.002,0.0
53603.0,STARLINK-4692,PAYLOAD,2023-01-08 18:09:22,15.088417499999998,0.0002431,53.2193,28.6395,33.4234,326.6911,0.00041546,6.330000000000001e-05,0.0,0 STARLINK-4692,1 53603U 22104R   23008.75651351  .00006330  00000-0  41546-3 0  9997,2 53603  53.2193  28.6395 0002431  33.4234 326.6911 15.08841750 21172,6917.875,95.437,541.422,538.058,0.0
53603.0,STARLINK-4692,PAYLOAD,2023-01-09 02:06:18,15.08849716,0.000237,53.2218,27.1532,34.7686,325.346,0.00075465,0.00011746,0.0,0 STARLINK-4692,1 53603U 22104R   23009.08771342  .00011746  00000-0  75465-3 0  9991,2 53603  53.2218  27.1532 0002370  34.7686 325.3460 15.08849716 20538,6917.851,95.437,541.355,538.076,0.0
53603.0,STARLINK-4692,PAYLOAD,2023-01-10 06:43:14,15.08850855,0.0002443,53.2195,21.8001,29.229,330.8838,0.00014858,2.078e-05,0.0,0 STARLINK-4692,1 53603U 22104R   23010.28002568  .00002078  00000-0  14858-3 0  9999,2 53603  53.2195  21.8001 0002443  29.2290 330.8838 15.08850855 20711,6917.847,95.437,541.4019999999998,538.0219999999998,0.0
53603.0,STARLINK-4692,PAYLOAD,2023-01-10 08:18:37,15.08847604,0.0002379,53.2193,21.5027,26.6031,333.5083,0.00011306,1.512e-05,0.0,0 STARLINK-4692,1 53603U 22104R   23010.34626651  .00001512  00000-0  11306-3 0  9998,2 53603  53.2193  21.5027 0002379  26.6031 333.5083 15.08847604 21414,6917.857,95.437,541.368,538.076,0.0
53603.0,STARLINK-4692,PAYLOAD,2023-01-10 17:50:56,15.0883832,0.0002409,53.2198,19.7187,27.6775,332.4345,-8.729299999999999e-05,-1.677e-05,0.0,0 STARLINK-4692,1 53603U 22104R   23010.74370966 -.00001677  00000-0 -87293-4 0  9990,2 53603  53.2198  19.7187 0002409  27.6775 332.4345 15.08838320 20788,6917.886,95.438,541.4169999999998,538.0840000000002,0.0
53603.0,STARLINK-4692,PAYLOAD,2023-01-11 04:58:37,15.08850696,0.0002248,53.2203,17.6372,19.4938,340.6140000000001,0.00015184,2.13e-05,0.0,0 STARLINK-4692,1 53603U 22104R   23011.20738405  .00002130  00000-0  15184-3 0  9990,2 53603  53.2203  17.6372 0002248  19.4938 340.6140 15.08850696 20851,6917.848000000001,95.437,541.268,538.158,0.0
53603.0,STARLINK-4692,PAYLOAD,2023-01-11 06:34:00,15.08860786,0.0003523999999999,53.2213,17.3433,1.915,358.1855,0.00022498,3.296e-05,0.0,0 STARLINK-4692,1 53603U 22104R   23011.27362128  .00003296  00000-0  22498-3 0  9992,2 53603  53.2213  17.3433 0003524   1.9150 358.1855 15.08860786 21553,6917.816999999999,95.436,542.12,537.244,0.0
53603.0,STARLINK-4692,PAYLOAD,2023-01-11 17:41:42,15.08848346,0.0002263,53.2205,15.2584,26.5136,333.5971,0.00022931,3.364e-05,0.0,0 STARLINK-4692,1 53603U 22104R   23011.73730222  .00003364  00000-0  22931-3 0  9995,2 53603  53.2205  15.2584 0002263  26.5136 333.5971 15.08848346 21626,6917.855,95.437,541.285,538.154,0.0
53603.0,STARLINK-4692,PAYLOAD,2023-01-12 00:03:16,15.08826809,0.0002314,53.2201,14.0687,37.9707,322.1448,-0.00018016,-3.153e-05,0.0,0 STARLINK-4692,1 53603U 22104R   23012.00227216 -.00003153  00000-0 -18016-3 0  9997,2 53603  53.2201  14.0687 0002314  37.9707 322.1448 15.08826809 20970,6917.920999999999,95.438,541.387,538.185,0.0
53603.0,STARLINK-4692,PAYLOAD,2023-01-12 06:24:48,15.08831703,0.0002216,53.22,12.8789,39.7118,320.4036,-3.2885e-05,-8.12e-06,0.0,0 STARLINK-4692,1 53603U 22104R   23012.26723353 -.00000812  00000-0 -32885-4 0  9998,2 53603  53.2200  12.8789 0002216  39.7118 320.4036 15.08831703 21700,6917.906,95.438,541.304,538.238,0.0
53603.0,STARLINK-4692,PAYLOAD,2023-01-13 03:04:49,15.08837845,0.0002244,53.2185,9.0129,41.9464,318.17,4.518100000000001e-05,4.31e-06,0.0,0 STARLINK-4692,1 53603U 22104R   23013.12835622  .00000431  00000-0  45181-4 0  9995,2 53603  53.2185   9.0129 0002244  41.9464 318.1700 15.08837845 21141,6917.887,95.438,541.304,538.2,0.0
53603.0,STARLINK-4692,PAYLOAD,2023-01-13 06:15:36,15.0883979,0.000222,53.2185,8.4155,46.4226,313.695,0.00018341,2.632e-05,0.0,0 STARLINK-4692,1 53603U 22104R   23013.26083686  .00002632  00000-0  18341-3 0  9997,2 53603  53.2185   8.4155 0002220  46.4226 313.6950 15.08839790 21859,6917.880999999999,95.438,541.2819999999999,538.21,0.0
53603.0,STARLINK-4692,PAYLOAD,2023-01-14 06:06:23,15.08850448,0.0002083,53.2188,3.9579,51.7473,308.3706,0.00051149,7.864e-05,0.0,0 STARLINK-4692,1 53603U 22104R   23014.25443967  .00007864  00000-0  51149-3 0  9994,2 53603  53.2188   3.9579 0002083  51.7473 308.3706 15.08850448 21316,6917.848000000001,95.437,541.154,538.2719999999999,0.0
53603.0,STARLINK-4692,PAYLOAD,2023-01-14 15:38:42,15.08843203,0.0002298,53.2186,2.1734,59.4423,300.6796,0.00018051,2.586e-05,0.0,0 STARLINK-4692,1 53603U 22104R   23014.65188180  .00002586  00000-0  18051-3 0  9992,2 53603  53.2186   2.1734 0002298  59.4423 300.6796 15.08843203 21377,6917.871,95.437,541.325,538.146,0.0
53603.0,STARLINK-4692,PAYLOAD,2023-01-15 09:07:56,15.08858261,0.0002011,53.2193,358.9037,67.1795,292.941,0.00080553,0.00012562,0.0,0 STARLINK-4692,1 53603U 22104R   23015.38051666  .00012562  00000-0  80553-3 0  9992,2 53603  53.2193 358.9037 0002011  67.1795 292.9410 15.08858261 22179,6917.825,95.436,541.081,538.298,0.0
53603.0,STARLINK-4692,PAYLOAD,2023-01-15 15:29:29,15.08845889,0.0002134999999999,53.2188,357.7133,66.4488,293.6728,0.00039027,5.929e-05,0.0,0 STARLINK-4692,1 53603U 22104R   23015.64547830  .00005929  00000-0  39027-3 0  9993,2 53603  53.2188 357.7133 0002135  66.4488 293.6728 15.08845889 22212,6917.861999999999,95.437,541.2040000000001,538.25,0.0
53603.0,STARLINK-4692,PAYLOAD,2023-01-16 05:47:56,15.08877959,0.0001724,53.2192,355.0394,70.7437,289.3741,0.0012638,0.00019904,0.0,0 STARLINK-4692,1 53603U 22104R   23016.24162830  .00019904  00000-0  12638-2 0  9999,2 53603  53.2192 355.0394 0001724  70.7437 289.3741 15.08877959 21615,6917.764,95.435,540.822,538.437,0.0
53603.0,STARLINK-4692,PAYLOAD,2023-01-16 08:58:42,15.0888747,0.0001916,53.2191,354.4442,71.9522,288.1679,0.0020745,0.00032925,0.0,0 STARLINK-4692,1 53603U 22104R   23016.37410562  .00032925  00000-0  20745-2 0  9997,2 53603  53.2191 354.4442 0001916  71.9522 288.1679 15.08887470 22327,6917.735,95.435,540.9259999999999,538.275,0.0
53603.0,STARLINK-4692,PAYLOAD,2023-01-17 12:00:16,15.08804093,0.0001575999999999,53.219,349.38699999999994,99.5119,260.6051,-0.00052849,-8.681e-05,0.0,0 STARLINK-4692,1 53603U 22104R   23017.50019419 -.00008681  00000-0 -52849-3 0  9994,2 53603  53.2190 349.3870 0001576  99.5119 260.6051 15.08804093 21805,6917.99,95.44,540.945,538.765,0.0
53603.0,STARLINK-4692,PAYLOAD,2023-01-17 21:32:36,15.08808725,0.0001563,53.2198,347.6037,96.178,263.939,0.00016697,2.368e-05,0.0,0 STARLINK-4692,1 53603U 22104R   23017.89764052  .00002368  00000-0  16697-3 0  9991,2 53603  53.2198 347.6037 0001563  96.1780 263.9390 15.08808725 22553,6917.976,95.44,540.922,538.76,0.0
53603.0,STARLINK-4692,PAYLOAD,2023-01-18 07:04:55,15.08851785,0.0001545,53.2181,345.8205,92.287,267.8299,0.0030748,0.00049004,0.0,0 STARLINK-4692,1 53603U 22104R   23018.29508488  .00049004  00000-0  30748-2 0  9995,2 53603  53.2181 345.8205 0001545  92.2870 267.8299 15.08851785 21924,6917.844,95.437,540.778,538.641,0.0
53603.0,STARLINK-4692,PAYLOAD,2023-01-18 15:01:51,15.08851037,0.0001607,53.2191,344.3331,88.4751,271.6426,0.0017283,0.00027333,0.0,0 STARLINK-4692,1 53603U 22104R   23018.62628608  .00027333  00000-0  17283-2 0  9999,2 53603  53.2191 344.3331 0001607  88.4751 271.6426 15.08851037 21973,6917.847,95.437,540.823,538.6,0.0
53603.0,STARLINK-4692,PAYLOAD,2023-01-19 06:55:41,15.08870827,0.0001554,53.2181,341.3578,96.3853,263.7316,0.0011505999999999,0.00018087,0.0,0 STARLINK-4692,1 53603U 22104R   23019.28867654  .00018087  00000-0  11506-2 0  9996,2 53603  53.2181 341.3578 0001554  96.3853 263.7316 15.08870827 22074,6917.786,95.436,540.726,538.576,0.0
53603.0,STARLINK-4692,PAYLOAD,2023-01-20 03:35:43,15.08850569,0.0002299,53.2182,337.4943,83.8938,276.2316,0.00091584,0.00014322,0.0,0 STARLINK-4692,1 53603U 22104R   23020.14980817  .00014322  00000-0  91584-3 0  9993,2 53603  53.2182 337.4943 0002299  83.8938 276.2316 15.08850569 22204,6917.848000000001,95.437,541.303,538.123,0.0
53603.0,STARLINK-4692,PAYLOAD,2023-01-20 06:46:29,15.08840026,0.0001595999999999,53.2198,336.8992,72.7319,287.3848,0.0014537,0.00022923,0.0,0 STARLINK-4692,1 53603U 22104R   23020.28229123  .00022923  00000-0  14537-2 0  9992,2 53603  53.2198 336.8992 0001596  72.7319 287.3848 15.08840026 22229,6917.88,95.438,540.849,538.641,0.0
53603.0,STARLINK-4692,PAYLOAD,2023-01-21 03:26:30,15.08856218,0.0001548,53.2182,333.0327,77.5302,282.5863,0.0012532,0.00019722,0.0,0 STARLINK-4692,1 53603U 22104R   23021.14341164  .00019722  00000-0  12532-2 0  9994,2 53603  53.2182 333.0327 0001548  77.5302 282.5863 15.08856218 22353,6917.831,95.437,540.7669999999999,538.625,0.0
53603.0,STARLINK-4692,PAYLOAD,2023-01-21 06:37:16,15.08870434,0.0001578,53.2193,332.4394,77.1147,283.0022,0.0018724,0.00029662,0.0,0 STARLINK-4692,1 53603U 22104R   23021.27588931  .00029662  00000-0  18724-2 0  9996,2 53603  53.2193 332.4394 0001578  77.1147 283.0022 15.08870434 22379,6917.786999999999,95.436,540.744,538.561,0.0
53603.0,STARLINK-4692,PAYLOAD,2023-01-22 03:17:16,15.088785,0.0001853,53.219,328.5713,81.2322,278.888,0.0012569,0.00019793,0.0,0 STARLINK-4692,1 53603U 22104R   23022.13699783  .00019793  00000-0  12569-2 0  9995,2 53603  53.2190 328.5713 0001853  81.2322 278.8880 15.08878500 22505,6917.763000000001,95.435,540.91,538.346,0.0
